CZ-3B R/B               
1 66587U 25269B   25342.84491911  .00050405  42210-6  12608-2 0  9997
2 66587  51.3469 170.5472 7519772 228.0184  37.9661  2.02868797   372
STARLINK-36076          
1 66588U 25270A   25343.83335647 -.02089108  00000+0 -34807-1 0  9997
2 66588  42.9992 209.7509 0001621 262.0326  76.1969 15.54440320  3934
STARLINK-35447          
1 66589U 25270B   25343.83335647 -.02083102  00000+0 -34702-1 0  9990
2 66589  42.9993 209.7411 0001640 262.4740  79.5937 15.54434386  4043
STARLINK-35429          
1 66590U 25270C   25343.83335647 -.02084538  00000+0 -34729-1 0  9995
2 66590  42.9992 209.7461 0001603 263.5944  76.5572 15.54434888  4045
STARLINK-36058          
1 66591U 25270D   25343.83335647 -.02078079  00000+0 -34613-1 0  9991
2 66591  42.9992 209.7364 0001505 261.6752  82.3092 15.54431983  3937
STARLINK-36066          
1 66592U 25270E   25343.83335647 -.02084554  00000+0 -34730-1 0  9997
2 66592  42.9992 209.7319 0001555 265.3208  80.5821 15.54434923  3836
STARLINK-36031          
1 66593U 25270F   25343.83335647 -.02083067  00000+0 -34702-1 0  9995
2 66593  42.9992 209.7269 0001571 258.8108  89.0066 15.54434962  3934
STARLINK-36032          
1 66594U 25270G   25343.83335647 -.02091304  00000+0 -34851-1 0  9994
2 66594  42.9993 209.7222 0001592 264.7270  85.0102 15.54438587  3679
STARLINK-35711          
1 66595U 25270H   25343.83335647 -.02083006  00000+0 -34700-1 0  9998
2 66595  42.9994 209.7166 0001569 256.3606  95.2898 15.54435340  4043
STARLINK-35811          
1 66596U 25270J   25343.83335647 -.02088588  00000+0 -34801-1 0  9991
2 66596  42.9995 209.7123 0001608 265.4188  88.1518 15.54437421  4040
STARLINK-35820          
1 66597U 25270K   25343.83335647 -.02078138  00000+0 -34614-1 0  9994
2 66597  42.9998 209.7076 0001512 263.4138  92.0728 15.54432007  4040
STARLINK-35981          
1 66598U 25270L   25343.83335647 -.02086142  00000+0 -34756-1 0  9996
2 66598  42.9997 209.7024 0001578 260.1811  97.2204 15.54437165  3772
