CCSDS_OMM_VERS = 2.0
CREATION_DATE  = 
ORIGINATOR     = 

OBJECT_NAME    = CZ-3B R/B
OBJECT_ID      = 2025-269B
CENTER_NAME    = EARTH
REF_FRAME      = TEME
TIME_SYSTEM    = UTC
MEAN_ELEMENT_THEORY = SGP/SGP4

EPOCH          = 2025-12-08T20:16:41.011104
MEAN_MOTION    = 2.02868797
ECCENTRICITY   = .7519772
INCLINATION    = 51.3469
RA_OF_ASC_NODE = 170.5472
ARG_OF_PERICENTER = 228.0184
MEAN_ANOMALY   = 37.9661

EPHEMERIS_TYPE = 0
CLASSIFICATION_TYPE = U
NORAD_CAT_ID   = 66587
ELEMENT_SET_NO = 999
REV_AT_EPOCH   = 37
BSTAR          = .12608E-2
MEAN_MOTION_DOT = .50405E-3
MEAN_MOTION_DDOT = .4221E-6

CCSDS_OMM_VERS = 2.0
CREATION_DATE  = 
ORIGINATOR     = 

OBJECT_NAME    = STARLINK-36076
OBJECT_ID      = 2025-270A
CENTER_NAME    = EARTH
REF_FRAME      = TEME
TIME_SYSTEM    = UTC
MEAN_ELEMENT_THEORY = SGP/SGP4

EPOCH          = 2025-12-09T20:00:01.999008
MEAN_MOTION    = 15.54440320
ECCENTRICITY   = .0001621
INCLINATION    = 42.9992
RA_OF_ASC_NODE = 209.7509
ARG_OF_PERICENTER = 262.0326
MEAN_ANOMALY   = 76.1969

EPHEMERIS_TYPE = 0
CLASSIFICATION_TYPE = U
NORAD_CAT_ID   = 66588
ELEMENT_SET_NO = 999
REV_AT_EPOCH   = 393
BSTAR          = -.34807E-1
MEAN_MOTION_DOT = -.2089108E-1
MEAN_MOTION_DDOT = 0

CCSDS_OMM_VERS = 2.0
CREATION_DATE  = 
ORIGINATOR     = 

OBJECT_NAME    = STARLINK-35447
OBJECT_ID      = 2025-270B
CENTER_NAME    = EARTH
REF_FRAME      = TEME
TIME_SYSTEM    = UTC
MEAN_ELEMENT_THEORY = SGP/SGP4

EPOCH          = 2025-12-09T20:00:01.999008
MEAN_MOTION    = 15.54434386
ECCENTRICITY   = .000164
INCLINATION    = 42.9993
RA_OF_ASC_NODE = 209.7411
ARG_OF_PERICENTER = 262.4740
MEAN_ANOMALY   = 79.5937

EPHEMERIS_TYPE = 0
CLASSIFICATION_TYPE = U
NORAD_CAT_ID   = 66589
ELEMENT_SET_NO = 999
REV_AT_EPOCH   = 404
BSTAR          = -.34702E-1
MEAN_MOTION_DOT = -.2083102E-1
MEAN_MOTION_DDOT = 0

CCSDS_OMM_VERS = 2.0
CREATION_DATE  = 
ORIGINATOR     = 

OBJECT_NAME    = STARLINK-35429
OBJECT_ID      = 2025-270C
CENTER_NAME    = EARTH
REF_FRAME      = TEME
TIME_SYSTEM    = UTC
MEAN_ELEMENT_THEORY = SGP/SGP4

EPOCH          = 2025-12-09T20:00:01.999008
MEAN_MOTION    = 15.54434888
ECCENTRICITY   = .0001603
INCLINATION    = 42.9992
RA_OF_ASC_NODE = 209.7461
ARG_OF_PERICENTER = 263.5944
MEAN_ANOMALY   = 76.5572

EPHEMERIS_TYPE = 0
CLASSIFICATION_TYPE = U
NORAD_CAT_ID   = 66590
ELEMENT_SET_NO = 999
REV_AT_EPOCH   = 404
BSTAR          = -.34729E-1
MEAN_MOTION_DOT = -.2084538E-1
MEAN_MOTION_DDOT = 0

CCSDS_OMM_VERS = 2.0
CREATION_DATE  = 
ORIGINATOR     = 

OBJECT_NAME    = STARLINK-36058
OBJECT_ID      = 2025-270D
CENTER_NAME    = EARTH
REF_FRAME      = TEME
TIME_SYSTEM    = UTC
MEAN_ELEMENT_THEORY = SGP/SGP4

EPOCH          = 2025-12-09T20:00:01.999008
MEAN_MOTION    = 15.54431983
ECCENTRICITY   = .0001505
INCLINATION    = 42.9992
RA_OF_ASC_NODE = 209.7364
ARG_OF_PERICENTER = 261.6752
MEAN_ANOMALY   = 82.3092

EPHEMERIS_TYPE = 0
CLASSIFICATION_TYPE = U
NORAD_CAT_ID   = 66591
ELEMENT_SET_NO = 999
REV_AT_EPOCH   = 393
BSTAR          = -.34613E-1
MEAN_MOTION_DOT = -.2078079E-1
MEAN_MOTION_DDOT = 0

CCSDS_OMM_VERS = 2.0
CREATION_DATE  = 
ORIGINATOR     = 

OBJECT_NAME    = STARLINK-36066
OBJECT_ID      = 2025-270E
CENTER_NAME    = EARTH
REF_FRAME      = TEME
TIME_SYSTEM    = UTC
MEAN_ELEMENT_THEORY = SGP/SGP4

EPOCH          = 2025-12-09T20:00:01.999008
MEAN_MOTION    = 15.54434923
ECCENTRICITY   = .0001555
INCLINATION    = 42.9992
RA_OF_ASC_NODE = 209.7319
ARG_OF_PERICENTER = 265.3208
MEAN_ANOMALY   = 80.5821

EPHEMERIS_TYPE = 0
CLASSIFICATION_TYPE = U
NORAD_CAT_ID   = 66592
ELEMENT_SET_NO = 999
REV_AT_EPOCH   = 383
BSTAR          = -.3473E-1
MEAN_MOTION_DOT = -.2084554E-1
MEAN_MOTION_DDOT = 0

CCSDS_OMM_VERS = 2.0
CREATION_DATE  = 
ORIGINATOR     = 

OBJECT_NAME    = STARLINK-36031
OBJECT_ID      = 2025-270F
CENTER_NAME    = EARTH
REF_FRAME      = TEME
TIME_SYSTEM    = UTC
MEAN_ELEMENT_THEORY = SGP/SGP4

EPOCH          = 2025-12-09T20:00:01.999008
MEAN_MOTION    = 15.54434962
ECCENTRICITY   = .0001571
INCLINATION    = 42.9992
RA_OF_ASC_NODE = 209.7269
ARG_OF_PERICENTER = 258.8108
MEAN_ANOMALY   = 89.0066

EPHEMERIS_TYPE = 0
CLASSIFICATION_TYPE = U
NORAD_CAT_ID   = 66593
ELEMENT_SET_NO = 999
REV_AT_EPOCH   = 393
BSTAR          = -.34702E-1
MEAN_MOTION_DOT = -.2083067E-1
MEAN_MOTION_DDOT = 0

CCSDS_OMM_VERS = 2.0
CREATION_DATE  = 
ORIGINATOR     = 

OBJECT_NAME    = STARLINK-36032
OBJECT_ID      = 2025-270G
CENTER_NAME    = EARTH
REF_FRAME      = TEME
TIME_SYSTEM    = UTC
MEAN_ELEMENT_THEORY = SGP/SGP4

EPOCH          = 2025-12-09T20:00:01.999008
MEAN_MOTION    = 15.54438587
ECCENTRICITY   = .0001592
INCLINATION    = 42.9993
RA_OF_ASC_NODE = 209.7222
ARG_OF_PERICENTER = 264.7270
MEAN_ANOMALY   = 85.0102

EPHEMERIS_TYPE = 0
CLASSIFICATION_TYPE = U
NORAD_CAT_ID   = 66594
ELEMENT_SET_NO = 999
REV_AT_EPOCH   = 367
BSTAR          = -.34851E-1
MEAN_MOTION_DOT = -.2091304E-1
MEAN_MOTION_DDOT = 0

CCSDS_OMM_VERS = 2.0
CREATION_DATE  = 
ORIGINATOR     = 

OBJECT_NAME    = STARLINK-35711
OBJECT_ID      = 2025-270H
CENTER_NAME    = EARTH
REF_FRAME      = TEME
TIME_SYSTEM    = UTC
MEAN_ELEMENT_THEORY = SGP/SGP4

EPOCH          = 2025-12-09T20:00:01.999008
MEAN_MOTION    = 15.54435340
ECCENTRICITY   = .0001569
INCLINATION    = 42.9994
RA_OF_ASC_NODE = 209.7166
ARG_OF_PERICENTER = 256.3606
MEAN_ANOMALY   = 95.2898

EPHEMERIS_TYPE = 0
CLASSIFICATION_TYPE = U
NORAD_CAT_ID   = 66595
ELEMENT_SET_NO = 999
REV_AT_EPOCH   = 404
BSTAR          = -.347E-1
MEAN_MOTION_DOT = -.2083006E-1
MEAN_MOTION_DDOT = 0

CCSDS_OMM_VERS = 2.0
CREATION_DATE  = 
ORIGINATOR     = 

OBJECT_NAME    = STARLINK-35811
OBJECT_ID      = 2025-270J
CENTER_NAME    = EARTH
REF_FRAME      = TEME
TIME_SYSTEM    = UTC
MEAN_ELEMENT_THEORY = SGP/SGP4

EPOCH          = 2025-12-09T20:00:01.999008
MEAN_MOTION    = 15.54437421
ECCENTRICITY   = .0001608
INCLINATION    = 42.9995
RA_OF_ASC_NODE = 209.7123
ARG_OF_PERICENTER = 265.4188
MEAN_ANOMALY   = 88.1518

EPHEMERIS_TYPE = 0
CLASSIFICATION_TYPE = U
NORAD_CAT_ID   = 66596
ELEMENT_SET_NO = 999
REV_AT_EPOCH   = 404
BSTAR          = -.34801E-1
MEAN_MOTION_DOT = -.2088588E-1
MEAN_MOTION_DDOT = 0

CCSDS_OMM_VERS = 2.0
CREATION_DATE  = 
ORIGINATOR     = 

OBJECT_NAME    = STARLINK-35820
OBJECT_ID      = 2025-270K
CENTER_NAME    = EARTH
REF_FRAME      = TEME
TIME_SYSTEM    = UTC
MEAN_ELEMENT_THEORY = SGP/SGP4

EPOCH          = 2025-12-09T20:00:01.999008
MEAN_MOTION    = 15.54432007
ECCENTRICITY   = .0001512
INCLINATION    = 42.9998
RA_OF_ASC_NODE = 209.7076
ARG_OF_PERICENTER = 263.4138
MEAN_ANOMALY   = 92.0728

EPHEMERIS_TYPE = 0
CLASSIFICATION_TYPE = U
NORAD_CAT_ID   = 66597
ELEMENT_SET_NO = 999
REV_AT_EPOCH   = 404
BSTAR          = -.34614E-1
MEAN_MOTION_DOT = -.2078138E-1
MEAN_MOTION_DDOT = 0

CCSDS_OMM_VERS = 2.0
CREATION_DATE  = 
ORIGINATOR     = 

OBJECT_NAME    = STARLINK-35981
OBJECT_ID      = 2025-270L
CENTER_NAME    = EARTH
REF_FRAME      = TEME
TIME_SYSTEM    = UTC
MEAN_ELEMENT_THEORY = SGP/SGP4

EPOCH          = 2025-12-09T20:00:01.999008
MEAN_MOTION    = 15.54437165
ECCENTRICITY   = .0001578
INCLINATION    = 42.9997
RA_OF_ASC_NODE = 209.7024
ARG_OF_PERICENTER = 260.1811
MEAN_ANOMALY   = 97.2204

EPHEMERIS_TYPE = 0
CLASSIFICATION_TYPE = U
NORAD_CAT_ID   = 66598
ELEMENT_SET_NO = 999
REV_AT_EPOCH   = 377
BSTAR          = -.34756E-1
MEAN_MOTION_DOT = -.2086142E-1
MEAN_MOTION_DDOT = 0

